satname,norad_id,inclination_deg,eccentricity,mean_motion_rev_per_day,perigee_km,apogee_km,l1,l2
STARLINK-1156,45054,53.0565,0.0001202,15.06395164,546.3939509431866,548.0588082996483,1 45054U 20006L   25258.57675611 -.00000153  00000+0  86301-5 0  9998,2 45054  53.0565 352.7360 0001202  86.7068 273.4058 15.06395164310069
STARLINK-1159,45057,53.0562,0.0001365,15.06392206,546.2901321899162,548.1807588675447,1 45057U 20006P   25258.52516252  .00000311  00000+0  39765-4 0  9997,2 45057  53.0562 352.9640 0001365  90.2422 269.8724 15.06392206310069
STARLINK-1166,45060,53.0558,9.26e-05,15.06392529,546.5931661751038,547.8757449686764,1 45060U 20006S   25258.53620413 -.00002215  00000+0 -12986-3 0  9999,2 45060  53.0558 352.9155 0000926  94.0514 266.0581 15.06392529310063
STARLINK-1169,45061,53.0565,0.0001454,15.06398172,546.2102140057268,548.2241069956008,1 45061U 20006T   25258.54358382  .00000905  00000+0  79671-4 0  9991,2 45061  53.0565 352.8822 0001454  91.4890 268.6265 15.06398172310064
STARLINK-1171,45062,53.0567,0.0001248,15.06387184,546.3865490088083,548.1151258130267,1 45062U 20006U   25258.52884349 -.00000973  00000+0 -46475-4 0  9990,2 45062  53.0567 352.9445 0001248  92.4906 267.6226 15.06387184310066
STARLINK-1133,45064,53.0555,0.0001785,15.06413774,545.9331757515492,548.4055101159774,1 45064U 20006W   25258.47538675  .00003594  00000+0  25996-3 0  9998,2 45064  53.0555 333.1850 0001785  88.3715 271.7479 15.06413774310335
STARLINK-1150,45067,53.0425,0.0003343,15.92743296,292.3791793660239,296.8405779290879,1 45067U 20006Z   25258.58341435  .00348338  57571-4  99500-3 0  9999,2 45067  53.0425 281.9671 0003343 353.8178 272.1673 15.92743296  5950
STARLINK-1167,45071,53.0562,0.0001452,15.06410354,546.1742685983572,548.18538060422,1 45071U 20006AD  25258.23579891  .00003457  00000+0  25079-3 0  9995,2 45071  53.0562 334.2648 0001452 103.0998 257.0153 15.06410354310299
STARLINK-1168,45072,53.0554,0.0001225,15.06396658,546.3734442527903,548.0701571589643,1 45072U 20006AE  25258.50487690 -.00001266  00000+0 -66150-4 0  9995,2 45072  53.0554 333.0589 0001225 101.2866 258.8261 15.06396658310338
STARLINK-1172,45074,53.0568,0.0001352,15.06389392,546.3077586005556,548.180381641916,1 45074U 20006AG  25258.51594406 -.00000046  00000+0  15833-4 0  9998,2 45074  53.0568 333.0079 0001352  95.2001 264.9142 15.06389392310336
STARLINK-1153,45080,53.0555,0.0001318,15.06400275,546.2979542741623,548.1234759318631,1 45080U 20006AN  25258.49382595  .00000463  00000+0  49982-4 0  9990,2 45080  53.0555 333.1041 0001318  94.6764 265.4376 15.06400275310339
STARLINK-1151,45081,53.0554,0.000134,15.06402145,546.2769880041815,548.1329796558484,1 45081U 20006AP  25258.47908614  .00002350  00000+0  17660-3 0  9999,2 45081  53.0554 333.2460 0001340  83.2344 276.8798 15.06402145310330
STARLINK-1190,45083,53.051,0.0007907,15.7209866,347.57774519762097,358.2222070716816,1 45083U 20006AR  25258.40485579  .00179416  00000+0  13137-2 0  9996,2 45083  53.0510 308.5403 0007907  13.9072 346.2162 15.72098660310679
STARLINK-1173,45084,53.0464,0.000994,15.79879695,324.11253020012555,337.4498595715586,1 45084U 20006AS  25258.58341435  .00228724  00000+0  11812-2 0  9993,2 45084  53.0464 271.9383 0009940 352.7526 352.3345 15.79879695  6030
STARLINK-1179,45085,53.0399,0.0005167,15.9136392,295.01542843957213,301.9150291828255,1 45085U 20006AT  25258.58341435  .00322154  49998-4  98861-3 0  9990,2 45085  53.0399 263.0600 0005167   5.0557  59.0477 15.91363920  6064
STARLINK-1185,45087,53.0552,0.0001307,15.06395783,546.3193377203097,548.1296272118261,1 45087U 20006AV  25258.45511696 -.00001263  00000+0 -65897-4 0  9993,2 45087  53.0552 313.2722 0001307  83.8716 276.2422 15.06395783310613
STARLINK-1183,45088,53.055,0.0001136,15.0640001,546.424807697018,547.9982468824173,1 45088U 20006AW  25258.47723457  .00000040  00000+0  21605-4 0  9995,2 45088  53.0550 313.1793 0001136  66.5381 293.5728 15.06400010310616
STARLINK-1176,45090,53.0493,0.0005721,15.77465078,333.78356413679285,341.467739763154,1 45090U 20006AY  25258.58341435  .00199758  00000+0  11567-2 0  9991,2 45090  53.0493 269.5570 0005721 334.0162 217.5053 15.77465078  6012
STARLINK-1142,45093,53.0409,0.000617,15.49322937,414.51186928765856,422.8991729587251,1 45093U 20006BB  25258.30222870  .00164991  00000+0  29092-2 0  9998,2 45093  53.0409 263.1569 0006170  35.9605 324.1817 15.49322937311307
STARLINK-1146,45094,53.0459,0.0005329,15.92464067,291.83355074840256,298.94619568987946,1 45094U 20006BC  25258.58341435  .00380747  66691-4  11019-2 0  9990,2 45094  53.0459 264.1795 0005329 355.8830  14.1864 15.92464067  5806
STARLINK-1147,45095,53.0419,0.0009661,15.88897772,298.9150631106677,311.8289392027027,1 45095U 20006BD  25258.58341435  .00211920  27199-4  73899-3 0  9992,2 45095  53.0419 266.8585 0009661   0.4496  59.6300 15.88897772  6058
STARLINK-1152,45096,53.0493,0.000464,15.20376244,501.5112202381579,507.898497483181,1 45096U 20006BE  25257.12028254  .00024015  00000+0  11000-2 0  9992,2 45096  53.0493 306.7405 0004640  30.3875 329.7388 15.20376244310586
STARLINK-1184,45098,53.0552,0.000122,15.06402527,546.3589214788663,548.0487046372509,1 45098U 20006BG  25258.42563008  .00001993  00000+0  15266-3 0  9998,2 45098  53.0552 313.4105 0001220  79.8591 280.2535 15.06402527310606
STARLINK-1193,45100,53.0544,0.0001231,15.06418534,546.3022510650871,548.0072578950403,1 45100U 20006BJ  25258.42196022  .00014038  00000+0  95895-3 0  9990,2 45100  53.0544 313.4259 0001231  86.4425 273.6705 15.06418534310603
STARLINK-1143,45179,53.0566,0.0005391,15.32638294,464.2536942003808,471.63513918385706,1 45179U 20012B   25257.82153384  .00035271  00000+0  11096-2 0  9992,2 45179  53.0566  89.7850 0005391 138.0726 222.0688 15.32638294308704
STARLINK-1201,45182,53.0369,0.0002634,16.05658958,257.0305699709479,260.52689717939484,1 45182U 20012E   25258.82805206  .00674034  23524-3  92222-3 0  9991,2 45182  53.0369  36.6895 0002634 355.5175   4.5833 16.05658958309379
STARLINK-1202,45183,53.0548,0.0001241,15.06384858,546.3985248608424,548.1174078914964,1 45183U 20012F   25258.02019718 -.00000829  00000+0 -36812-4 0  9990,2 45183  53.0548 115.2303 0001241  89.9187 270.1944 15.06384858308368
STARLINK-1216,45185,53.0534,0.0001215,15.06398765,546.3739127283125,548.056773347671,1 45185U 20012H   25258.01281533  .00001265  00000+0  10381-3 0  9992,2 45185  53.0534 115.2617 0001215  94.7982 265.3146 15.06398765308307
STARLINK-1224,45186,53.0359,0.000278,16.0836382,249.49257488471994,253.17856163267243,1 45186U 20012J   25258.00982598  .00642282  22251-3  74108-3 0  9994,2 45186  53.0359  61.9913 0002780 336.3632  23.7273 16.08363820309040
STARLINK-1225,45187,53.0533,0.0001709,15.06441731,545.9001411751506,548.2671815972126,1 45187U 20012K   25258.29661329  .00009713  00000+0  66933-3 0  9999,2 45187  53.0533 113.9899 0001709  84.4300 275.6884 15.06441731308397
STARLINK-1228,45188,53.0239,0.0004384,16.34337011,178.0348337945552,183.7858064848524,1 45188U 20012L   25257.74500021  .05684543  12255-4  78651-3 0  9995,2 45188  53.0239 359.8770 0004384 333.7401  26.3420 16.34337011309894
STARLINK-1230,45189,53.0544,0.0001378,15.06401525,546.2525716496402,548.161196424081,1 45189U 20012M   25258.30031047  .00001814  00000+0  14061-3 0  9990,2 45189  53.0544 113.9735 0001378  85.8971 274.2175 15.06401525305629
STARLINK-1234,45190,53.0552,0.0001332,15.06400367,546.2879768582698,548.1328894144572,1 45190U 20012N   25258.18604706  .00001118  00000+0  93934-4 0  9990,2 45190  53.0552  74.4837 0001332  89.0163 271.0979 15.06400367308840
STARLINK-1237,45192,53.0399,0.0006746,16.25249323,200.89660698200532,209.7790312079287,1 45192U 20012Q   25258.83111046  .02723137  11963-4  88937-3 0  9999,2 45192  53.0399  55.8080 0006746 295.0671  64.9668 16.25249323309267
STARLINK-1240,45194,53.0387,0.000173,15.98198735,278.26455667896425,280.5680701254014,1 45194U 20012S   25258.58341435  .00363968  65850-4  77373-3 0  9996,2 45194  53.0387  60.1880 0001730  51.5394 310.8325 15.98198735  6073
STARLINK-1244,45196,53.0372,0.0001178,16.02333136,267.1764243055668,268.74224460196365,1 45196U 20012U   25257.71344023  .00398306  81099-4  66724-3 0  9993,2 45196  53.0372  64.1375 0001178 332.2200  27.8767 16.02333136309098
STARLINK-1269,45197,53.0554,0.0001469,15.06394991,546.2095738860326,548.2442458027454,1 45197U 20012V   25258.31137912  .00001608  00000+0  12686-3 0  9990,2 45197  53.0554 113.9261 0001469  92.8194 267.2963 15.06394991308379
STARLINK-1154,45198,53.0547,0.0001449,15.06404119,546.1954526484769,548.2024150020989,1 45198U 20012W   25258.23580380  .00000889  00000+0  78574-4 0  9992,2 45198  53.0547  94.2618 0001449  90.0469 270.0686 15.06404119308617
STARLINK-1199,45201,53.0548,0.0001367,15.06402495,546.2572170306257,548.1506052357308,1 45201U 20012Z   25258.24686348  .00001411  00000+0  11359-3 0  9998,2 45201  53.0548  94.2128 0001367  88.0067 272.1078 15.06402495308678
STARLINK-1206,45204,53.0375,0.0001085,16.01230529,270.28855230352383,271.7314171992157,1 45204U 20012AC  25258.58341435  .01460502  12239-2  26397-2 0  9991,2 45204  53.0375  41.0395 0001085 357.0844 299.3337 16.01230529  5962
STARLINK-1208,45205,53.0388,0.0001427,15.93678722,291.04670352584253,292.9503602066379,1 45205U 20012AD  25258.58341435  .00405334  75368-4  11013-2 0  9996,2 45205  53.0388  42.1520 0001427  94.2747 284.2548 15.93678722  6061
STARLINK-1209,45206,53.0557,0.000137,15.0640466,546.2485049504803,548.146046542036,1 45206U 20012AE  25258.18974901  .00001714  00000+0  13393-3 0  9997,2 45206  53.0557  74.4710 0001370  98.1614 261.9531 15.06404660307994
STARLINK-1210,45207,53.0305,0.0009987,15.45698767,422.52704418648045,436.12427009785733,1 45207U 20012AF  25258.62034992  .00172226  00000+0  34363-2 0  9990,2 45207  53.0305  46.9678 0009987 229.8686 130.1446 15.45698767309379
